OBJECT_NAME,OBJECT_ID,EPOCH,MEAN_MOTION,ECCENTRICITY,INCLINATION,RA_OF_ASC_NODE,ARG_OF_PERICENTER,MEAN_ANOMALY,EPHEMERIS_TYPE,CLASSIFICATION_TYPE,NORAD_CAT_ID,ELEMENT_SET_NO,REV_AT_EPOCH,BSTAR,MEAN_MOTION_DOT,MEAN_MOTION_DDOT
STARLINK-35973,2025-271R,2026-07-04T17:18:42.216480,15.34467043,.00007774,53.1587,313.5812,76.5808,283.5281,0,U,66632,999,3547,.19574095E-2,.66488E-3,0
STARLINK-35948,2025-271S,2026-07-04T15:47:56.126400,15.34469761,.0001007,53.1573,313.8975,64.4191,295.6915,0,U,66633,999,3551,.21198967E-2,.72099E-3,0
STARLINK-35967,2025-271T,2026-07-04T18:37:20.879040,15.34457870,.00013626,53.1583,313.2091,74.7752,285.3401,0,U,66634,999,3548,.15124746E-2,.51169E-3,0
STARLINK-35955,2025-271U,2026-07-01T20:25:38.507232,15.30225460,.00015362,53.1611,329.7825,77.7767,282.3406,0,U,66635,999,3504,.64425442E-3,.18785E-3,0
STARLINK-35968,2025-271V,2026-07-04T19:07:08.450112,15.30281885,.00005355,53.1595,316.1721,73.4102,286.6957,0,U,66636,999,3549,.19992288E-2,.59478E-3,0
STARLINK-35953,2025-271W,2026-07-04T17:24:45.792000,15.34489073,.00010084,53.1573,313.6067,106.4456,253.6658,0,U,66637,999,3552,.24221514E-2,.82599E-3,0
STARLINK-35972,2025-271X,2026-07-04T19:16:16.065408,15.30266588,.00013733,53.1592,316.2095,83.3195,276.7962,0,U,66638,999,3549,.2134617E-2,.63535E-3,0
STARLINK-35908,2025-271Y,2026-07-04T18:51:56.828160,15.30274085,.00004859,53.1606,316.1012,321.4627,38.6339,0,U,66639,999,3549,.10738273E-2,.31653E-3,0
STARLINK-35921,2025-271Z,2026-07-04T18:01:48.445824,15.30254830,.00016451,53.1597,315.8873,89.1624,270.9565,0,U,66640,999,3549,.13492779E-2,.39886E-3,0
STARLINK-35923,2025-271AA,2026-07-04T21:02:28.264128,15.30390206,.0001409,53.1603,315.9528,77.8038,282.3120,0,U,66641,999,3550,.21439408E-2,.64065E-3,0
STARLINK-35926,2025-271AB,2026-07-04T16:03:36.236160,15.30248681,.00009256,53.1595,316.7937,102.4533,257.6572,0,U,66642,999,3543,.15644293E-2,.46334E-3,0
STARLINK-35918,2025-271AC,2026-07-04T20:14:09.758400,15.34476957,.0001152,53.1582,312.9145,93.8990,266.2144,0,U,66643,999,3554,.17956228E-2,.60935E-3,0
STARLINK-35938,2025-271AD,2026-07-04T08:25:29.410176,15.30244980,.0001061,53.1611,318.3631,92.5835,267.5287,0,U,66644,999,3542,.92379292E-3,.27139E-3,0
STARLINK-35867,2025-278A,2026-07-04T15:52:32.866464,15.27597806,.00012453,42.9977,174.1895,271.0346,89.0363,0,U,66791,999,3309,.12566746E-2,.345E-3,0
STARLINK-35990,2025-278B,2026-07-05T00:07:12.446688,15.27622532,.00005346,42.9990,171.6048,303.8715,56.2086,0,U,66792,999,3315,.18708193E-2,.51647E-3,0
STARLINK-36051,2025-278C,2026-07-05T00:46:01.971264,15.27613592,.00015488,42.9999,171.8030,259.2906,100.7771,0,U,66793,999,3315,.13770651E-2,.37866E-3,0
STARLINK-36062,2025-278D,2026-07-04T23:21:07.769376,15.27353012,.00038789,43.0088,172.2365,338.6894,21.3795,0,U,66794,999,3314,-.50213836E-2,-.135051E-2,0
STARLINK-36047,2025-278E,2026-07-05T00:44:11.043168,15.27599996,.00015409,43.0006,171.7997,262.2987,97.7690,0,U,66795,999,3315,.10435797E-2,.28584E-3,0
STARLINK-35964,2025-278F,2026-07-04T23:14:22.099776,15.27627281,.00003329,43.0011,157.1441,43.6879,316.3999,0,U,66796,999,3331,.1299721E-2,.35728E-3,0
STARLINK-36099,2025-278G,2026-07-05T00:33:04.833504,15.27607206,.00015797,43.0027,171.7409,256.6951,103.3725,0,U,66797,999,3315,.96575363E-3,.26431E-3,0
STARLINK-36041,2025-278H,2026-07-05T00:58:59.032992,15.27616650,.00012345,42.9998,171.8704,248.7037,111.3683,0,U,66798,999,3315,.14166276E-2,.3897E-3,0
STARLINK-36044,2025-278J,2026-07-05T00:03:28.442592,15.27612323,.00004985,42.9959,171.5800,235.1351,124.9454,0,U,66799,999,3315,.11903575E-2,.32672E-3,0
STARLINK-35996,2025-278K,2026-07-04T23:56:04.608384,15.27611543,.00004665,42.9968,171.5406,329.0333,31.0491,0,U,66800,999,3315,.87678413E-3,.23967E-3,0
STARLINK-36080,2025-278L,2026-07-04T23:41:28.948704,15.27605611,.00004331,42.9991,172.3301,261.1493,98.9310,0,U,66801,999,3314,.92658655E-3,.25343E-3,0
STARLINK-35604,2025-278M,2026-07-04T10:44:10.608000,15.27598320,.00024734,43.0031,175.1573,301.7971,58.2639,0,U,66802,999,3306,.15434206E-2,.4248E-3,0
STARLINK-35565,2025-278N,2026-07-05T01:00:49.972320,15.27631020,.00013892,43.0000,171.8847,256.2218,103.8479,0,U,66803,999,3315,.11208929E-2,.30759E-3,0
STARLINK-36038,2025-278P,2026-07-05T00:12:43.671456,15.27607083,.00013024,42.9987,171.6358,260.5561,99.5144,0,U,66804,999,3315,.11232361E-2,.30802E-3,0
STARLINK-36049,2025-278Q,2026-07-05T01:04:32.280384,15.27605805,.00013902,42.9985,171.9016,262.6924,97.3770,0,U,66805,999,3315,.10320808E-2,.2827E-3,0
STARLINK-36069,2025-278R,2026-07-04T23:35:55.207968,15.27606109,.00005867,42.9948,172.2996,128.2995,231.7909,0,U,66806,999,3314,.13898922E-2,.38214E-3,0
STARLINK-36000,2025-278S,2026-07-05T00:18:16.778880,15.27611509,.00012071,43.0013,171.6629,257.8771,102.1946,0,U,66807,999,3315,.97451871E-3,.26677E-3,0
STARLINK-36071,2025-278T,2026-07-04T23:46:50.572704,15.27624166,.00011862,42.9970,171.4911,271.9454,88.1261,0,U,66808,999,3315,.12186085E-2,.33469E-3,0
STARLINK-35979,2025-278U,2026-07-04T23:37:48.402336,15.27616783,.00011882,42.9993,172.3050,274.3039,85.7676,0,U,66809,999,3314,.1162077E-2,.3189E-3,0
STARLINK-36046,2025-278V,2026-07-04T10:42:19.777536,15.27609054,.00014353,42.9997,175.1456,276.7388,83.3300,0,U,66810,999,3306,.76297982E-3,.20811E-3,0
STARLINK-36045,2025-278W,2026-07-05T00:38:38.059296,15.27608281,.00026433,43.0009,171.7640,285.0529,75.0030,0,U,66811,999,3315,.10489641E-2,.28742E-3,0
STARLINK-36054,2025-278X,2026-07-05T00:34:55.691616,15.27607596,.00012334,42.9995,171.7416,224.1182,135.9572,0,U,66812,999,3315,.12029162E-2,.33016E-3,0
STARLINK-36042,2025-278Y,2026-07-04T23:57:55.361088,15.27612051,.00014245,42.9992,171.5456,269.4755,90.5934,0,U,66813,999,3315,.86695153E-3,.23695E-3,0
STARLINK-35984,2025-278Z,2026-07-05T00:01:37.564608,15.27628787,.0002631,43.0016,171.5672,285.7773,74.2788,0,U,66814,999,3315,.15026742E-2,.41384E-3,0
STARLINK-35985,2025-278AA,2026-07-04T16:38:36.152736,15.27610430,.00008688,42.9997,173.5577,264.1270,95.9483,0,U,66815,999,3431,.91485871E-3,.25022E-3,0
STARLINK-36098,2025-278AB,2026-07-04T23:48:40.089888,15.27628744,.00006003,42.9967,171.4943,242.8749,117.2042,0,U,66816,999,3315,.12106379E-2,.33252E-3,0
STARLINK-35995,2025-278AC,2026-07-05T00:23:49.818912,15.27607087,.00011443,43.0017,171.6872,253.1544,106.9182,0,U,66817,999,3315,.10371313E-2,.28411E-3,0
STARLINK-35994,2025-278AD,2026-07-04T16:36:43.839648,15.27631861,.00015625,43.0029,173.5582,272.2567,87.8106,0,U,66818,999,3310,.21787921E-2,.60281E-3,0
STARLINK-35989,2025-278AE,2026-07-05T00:40:28.396416,15.27621269,.00013542,42.9986,171.7655,229.0488,131.0247,0,U,66819,999,3315,.94629056E-3,.25902E-3,0
STARLINK-35966,2025-280A,2026-07-05T00:04:50.019744,14.98345230,.00026204,70.0017,38.8620,269.4590,90.6269,0,U,66821,999,3364,.54236212E-3,.6387E-4,0
STARLINK-35958,2025-280B,2026-07-04T20:04:28.537824,14.98347772,.0002558,70.0016,39.0786,270.3979,89.6887,0,U,66822,999,3362,.61843389E-3,.7297E-4,0
STARLINK-35957,2025-280C,2026-07-05T00:28:50.077920,14.98344175,.00030118,70.0018,38.5147,267.9466,92.1348,0,U,66823,999,3365,.43748263E-3,.5133E-4,0
STARLINK-35896,2025-280D,2026-07-04T23:40:47.235648,14.98343016,.00027808,70.0015,38.8028,269.7992,90.2848,0,U,66824,999,3364,.44363644E-3,.5206E-4,0
STARLINK-35476,2025-280E,2026-07-04T23:52:48.906336,14.98342943,.00025836,70.0017,38.8297,265.8235,94.2629,0,U,66825,999,3363,.5628455E-3,.6631E-4,0
STARLINK-35898,2025-280F,2026-07-04T21:04:32.951424,14.98345523,.00023974,70.0017,38.8233,269.2881,90.8004,0,U,66826,999,3363,.56577887E-3,.6667E-4,0
STARLINK-35959,2025-280G,2026-07-04T20:16:29.872416,14.98346337,.0002783,70.0015,39.1086,267.4669,92.6171,0,U,66827,999,3362,.50035801E-3,.5885E-4,0
STARLINK-35982,2025-280H,2026-07-04T23:46:48.065376,14.98342946,.00026799,70.0018,38.8144,267.6097,92.4756,0,U,66828,999,3364,.47803917E-3,.5617E-4,0
STARLINK-36084,2025-280J,2026-07-05T00:40:51.455712,14.98331469,.00029465,70.0012,38.5427,270.2555,89.8266,0,U,66829,999,3365,.21085716E-3,.2424E-4,0
STARLINK-35881,2025-280K,2026-07-04T20:46:33.360096,14.98344194,.00026609,70.0013,39.1840,266.5973,93.4882,0,U,66830,999,3362,.55596343E-3,.6549E-4,0
STARLINK-35788,2025-280L,2026-07-05T00:22:49.485792,14.98346371,.00028221,70.0017,38.5009,270.1854,89.8981,0,U,66831,999,3365,.52377653E-3,.6165E-4,0
STARLINK-35768,2025-280M,2026-07-05T01:10:54.326496,14.98330228,.00032952,70.0012,38.6164,267.7235,92.3547,0,U,66832,999,3365,.20916792E-3,.2404E-4,0
STARLINK-35858,2025-280N,2026-07-05T00:46:52.043520,14.98346608,.00024709,70.0016,38.5591,271.2260,88.8616,0,U,66833,999,3365,.50412642E-3,.593E-4,0
STARLINK-35840,2025-280P,2026-07-05T00:10:48.377568,14.98346080,.00021668,70.0013,38.4735,266.6834,93.4077,0,U,66834,999,3365,.65769623E-3,.7766E-4,0
STARLINK-35890,2025-280Q,2026-07-04T20:10:31.097280,14.98350999,.00018223,70.0018,39.0929,271.2150,88.8800,0,U,66835,999,3362,.16729796E-2,.19936E-3,0
STARLINK-35838,2025-280R,2026-07-05T00:34:50.761632,14.98344303,.00029152,70.0015,38.5297,267.1870,92.8955,0,U,66836,999,3365,.45751297E-3,.5372E-4,0
STARLINK-35729,2025-280S,2026-07-05T00:05:04.507296,14.98342862,.00025011,70.0017,38.8596,265.8938,94.1935,0,U,66837,999,3364,.62567688E-3,.7383E-4,0
STARLINK-35886,2025-280T,2026-07-04T21:16:48.385632,14.98346719,.00028373,70.0011,38.8486,267.4663,92.6172,0,U,66838,999,3363,.66140039E-3,.7811E-4,0
STARLINK-35717,2025-280U,2026-07-04T20:04:42.801600,14.98348559,.00028361,70.0016,39.0766,268.1927,91.8908,0,U,66839,999,3362,.60531694E-3,.714E-4,0
STARLINK-35837,2025-280V,2026-07-04T23:41:01.477824,14.98345865,.00022854,70.0015,38.8017,269.3118,90.7780,0,U,66840,999,3364,.54795854E-3,.6454E-4,0
STARLINK-35715,2025-280W,2026-07-04T23:53:03.005088,14.98342237,.00024745,70.0017,38.8290,269.0619,91.0257,0,U,66841,999,3364,.44099059E-3,.5174E-4,0
STARLINK-35769,2025-280X,2026-07-05T00:17:03.228288,14.98342817,.00023246,70.0016,38.4852,269.1200,90.9693,0,U,66842,999,3365,.44145818E-3,.518E-4,0
